NORAD_CAT_ID,OBJECT_NAME,OBJECT_TYPE,EPOCH,MEAN_MOTION,ECCENTRICITY,INCLINATION,RA_OF_ASC_NODE,ARG_OF_PERICENTER,MEAN_ANOMALY,BSTAR,MEAN_MOTION_DOT,MEAN_MOTION_DDOT,TLE_LINE0,TLE_LINE1,TLE_LINE2,SEMIMAJOR_AXIS,PERIOD,APOGEE,PERIGEE,DECAYED
51148.0,STARLINK-3359,PAYLOAD,2022-07-26 20:35:47,15.08834633,0.0002204,53.2162,123.0541,56.0386,304.0815,0.00017922,2.565e-05,0.0,0 STARLINK-3359,1 51148U 22005AW  22207.85818449  .00002565  00000-0  17922-3 0  9990,2 51148  53.2162 123.0541 0002204  56.0386 304.0815 15.08834633 29049,6917.897,95.438,541.286,538.237,0.0
51148.0,STARLINK-3359,PAYLOAD,2022-07-27 06:08:06,15.08842368,0.000223,53.2163,121.2699,56.953,303.1676,0.00044523,6.805e-05,0.0,0 STARLINK-3359,1 51148U 22005AW  22208.25562536  .00006805  00000-0  44523-3 0  9996,2 51148  53.2163 121.2699 0002230  56.9530 303.1676 15.08842368 29109,6917.873000000001,95.437,541.281,538.195,0.0
51148.0,STARLINK-3359,PAYLOAD,2022-07-27 20:26:33,15.08850262,0.0002215,53.2163,118.5939,58.0023,302.1185,0.00040709,6.198e-05,0.0,0 STARLINK-3359,1 51148U 22005AW  22208.85178188  .00006198  00000-0  40709-3 0  9995,2 51148  53.2163 118.5939 0002215  58.0023 302.1185 15.08850262 30308,6917.849,95.437,541.246,538.182,0.0
51148.0,STARLINK-3359,PAYLOAD,2022-07-28 10:45:01,15.0886152,0.0002228,53.2163,115.9177,59.6892,300.4321,0.0004402,6.729e-05,0.0,0 STARLINK-3359,1 51148U 22005AW  22209.44793398  .00006729  00000-0  44020-3 0  9997,2 51148  53.2163 115.9177 0002228  59.6892 300.4321 15.08861520 29285,6917.815,95.436,541.221,538.138,0.0
51148.0,STARLINK-3359,PAYLOAD,2022-07-28 20:17:20,15.08849184,0.0002255999999999,53.2162,114.1337,60.7434,299.3784,-2.5092e-05,-6.88e-06,0.0,0 STARLINK-3359,1 51148U 22005AW  22209.84537334 -.00000688  00000-0 -25092-4 0  9996,2 51148  53.2162 114.1337 0002256  60.7434 299.3784 15.08849184 29347,6917.852,95.437,541.278,538.1569999999998,0.0
51148.0,STARLINK-3359,PAYLOAD,2022-07-29 10:35:48,15.08849071,0.0002288,53.2164,111.4572,60.9012,299.2209,7.892399999999999e-05,9.68e-06,0.0,0 STARLINK-3359,1 51148U 22005AW  22210.44153230  .00000968  00000-0  78924-4 0  9994,2 51148  53.2164 111.4572 0002288  60.9012 299.2209 15.08849071 29435,6917.853,95.437,541.3,538.135,0.0
51148.0,STARLINK-3359,PAYLOAD,2022-07-29 16:57:20,15.0885119,0.0002283,53.2163,110.2677,61.2189,298.9033,9.3266e-05,1.197e-05,0.0,0 STARLINK-3359,1 51148U 22005AW  22210.70648961  .00001197  00000-0  93266-4 0  9994,2 51148  53.2163 110.2677 0002283  61.2189 298.9033 15.08851190 29471,6917.846,95.437,541.2909999999998,538.132,0.0
51148.0,STARLINK-3359,PAYLOAD,2022-07-30 00:54:16,15.08846186,0.000229,53.2164,108.7809,62.5593,297.5632,-2.3217e-05,-6.58e-06,0.0,0 STARLINK-3359,1 51148U 22005AW  22211.03769039 -.00000658  00000-0 -23217-4 0  9993,2 51148  53.2164 108.7809 0002290  62.5593 297.5632 15.08846186 30631,6917.861,95.437,541.311,538.1419999999998,0.0
51148.0,STARLINK-3359,PAYLOAD,2022-07-30 05:40:26,15.08842076,0.0002186,53.2168,107.8886,61.5554,298.5658,-2.7383e-05,-7.24e-06,0.0,0 STARLINK-3359,1 51148U 22005AW  22211.23641699 -.00000724  00000-0 -27383-4 0  9998,2 51148  53.2168 107.8886 0002186  61.5554 298.5658 15.08842076 29552,6917.874,95.437,541.251,538.227,0.0
51148.0,STARLINK-3359,PAYLOAD,2022-07-30 23:09:40,15.08842066,0.000225,53.217,104.6172,63.5507,296.5716,1.9534e-05,2.3e-07,0.0,0 STARLINK-3359,1 51148U 22005AW  22211.96505434  .00000023  00000-0  19534-4 0  9993,2 51148  53.2170 104.6172 0002250  63.5507 296.5716 15.08842066 29664,6917.874,95.437,541.2959999999998,538.183,0.0
51148.0,STARLINK-3359,PAYLOAD,2022-07-31 10:17:22,15.08844812,0.0002209,53.2171,102.5357,62.6853,297.4364,8.1363e-05,1.007e-05,0.0,0 STARLINK-3359,1 51148U 22005AW  22212.42873141  .00001007  00000-0  81363-4 0  9990,2 51148  53.2171 102.5357 0002209  62.6853 297.4364 15.08844812 30847,6917.866,95.437,541.259,538.203,0.0
51148.0,STARLINK-3359,PAYLOAD,2022-07-31 19:49:40,15.08863523,0.0002833,53.2171,100.7514,65.9463,294.1825,-0.00017254,-3.036e-05,0.0,0 STARLINK-3359,1 51148U 22005AW  22212.82616370 -.00003036  00000-0 -17254-3 0  9996,2 51148  53.2171 100.7514 0002833  65.9463 294.1825 15.08863523 30901,6917.808000000001,95.436,541.633,537.714,0.0
51148.0,STARLINK-3359,PAYLOAD,2022-08-01 02:11:13,15.08851111,0.000223,53.2161,99.5623,65.0366,295.0858,0.00013136,1.804e-05,0.0,0 STARLINK-3359,1 51148U 22005AW  22213.09112748  .00001804  00000-0  13136-3 0  9990,2 51148  53.2161  99.5623 0002230  65.0366 295.0858 15.08851111 30940,6917.846,95.437,541.254,538.169,0.0
51148.0,STARLINK-3359,PAYLOAD,2022-08-01 16:29:42,15.08841714,0.0002262,53.216,96.8859,64.2799,295.8426,0.00012815,1.752e-05,0.0,0 STARLINK-3359,1 51148U 22005AW  22213.68729257  .00001752  00000-0  12815-3 0  9999,2 51148  53.2160  96.8859 0002262  64.2799 295.8426 15.08841714 31034,6917.875,95.437,541.305,538.175,0.0
51148.0,STARLINK-3359,PAYLOAD,2022-08-02 02:02:01,15.08838279,0.0002248,53.2169,95.1015,65.0832,295.0394,6.3071e-05,7.16e-06,0.0,0 STARLINK-3359,1 51148U 22005AW  22214.08473511  .00000716  00000-0  63071-4 0  9993,2 51148  53.2169  95.1015 0002248  65.0832 295.0394 15.08838279 31094,6917.886,95.438,541.306,538.196,0.0
51148.0,STARLINK-3359,PAYLOAD,2022-08-03 08:14:21,15.08834008,0.0002282,53.2169,89.45200000000001,64.6256,295.4972,-6.717600000000001e-05,-1.357e-05,0.0,0 STARLINK-3359,1 51148U 22005AW  22215.34329881 -.00001357  00000-0 -67176-4 0  9997,2 51148  53.2169  89.4520 0002282  64.6256 295.4972 15.08834008 31287,6917.899,95.438,541.342,538.185,0.0
51148.0,STARLINK-3359,PAYLOAD,2022-08-03 16:11:16,15.088304999999998,0.0002174999999999,53.2171,87.9652,61.9879,298.1333,2.62e-05,1.29e-06,0.0,0 STARLINK-3359,1 51148U 22005AW  22215.67449969  .00000129  00000-0  26200-4 0  9990,2 51148  53.2171  87.9652 0002175  61.9879 298.1333 15.08830500 30228,6917.909000000002,95.438,541.279,538.27,0.0
51148.0,STARLINK-3359,PAYLOAD,2022-08-04 01:43:35,15.08835611,0.0002205,53.2169,86.181,63.4932,296.6286,4.832399999999999e-05,4.81e-06,0.0,0 STARLINK-3359,1 51148U 22005AW  22216.07193726  .00000481  00000-0  48324-4 0  9994,2 51148  53.2169  86.1810 0002205  63.4932 296.6286 15.08835611 30287,6917.894,95.438,541.284,538.2330000000002,0.0
51148.0,STARLINK-3359,PAYLOAD,2022-08-04 16:02:03,15.08838489,0.0002159,53.2167,83.50399999999998,65.7531,294.3686,7.8033e-05,9.54e-06,0.0,0 STARLINK-3359,1 51148U 22005AW  22216.66809526  .00000954  00000-0  78033-4 0  9996,2 51148  53.2167  83.5040 0002159  65.7531 294.3686 15.08838489 30374,6917.885,95.438,541.244,538.256,0.0
51148.0,STARLINK-3359,PAYLOAD,2022-08-04 23:58:58,15.08843759,0.0002176,53.2173,82.0176,65.8905,294.2315,8.0915e-05,1e-05,0.0,0 STARLINK-3359,1 51148U 22005AW  22216.99929209  .00001000  00000-0  80915-4 0  9998,2 51148  53.2173  82.0176 0002176  65.8905 294.2315 15.08843759 30420,6917.869000000002,95.437,541.239,538.229,0.0
51148.0,STARLINK-3359,PAYLOAD,2022-08-05 15:52:50,15.08839406,0.0002145999999999,53.2178,79.0436,67.7629,292.3590000000001,0.00012397,1.685e-05,0.0,0 STARLINK-3359,1 51148U 22005AW  22217.66169481  .00001685  00000-0  12397-3 0  9998,2 51148  53.2178  79.0436 0002146  67.7629 292.3590 15.08839406 30520,6917.882,95.438,541.232,538.263,0.0
51148.0,STARLINK-3359,PAYLOAD,2022-08-05 23:49:46,15.08837075,0.0002153,53.2176,77.5567,67.0161,293.1058,5.5127e-05,5.89e-06,0.0,0 STARLINK-3359,1 51148U 22005AW  22217.99289888  .00000589  00000-0  55127-4 0  9999,2 51148  53.2176  77.5567 0002153  67.0161 293.1058 15.08837075 31684,6917.889,95.438,541.244,538.265,0.0
51148.0,STARLINK-3359,PAYLOAD,2022-08-06 14:08:14,15.08842731,0.0002125,53.2171,74.8798,70.0558,290.0662,7.1696e-05,8.53e-06,0.0,0 STARLINK-3359,1 51148U 22005AW  22218.58905522  .00000853  00000-0  71696-4 0  9998,2 51148  53.2171  74.8798 0002125  70.0558 290.0662 15.08842731 30667,6917.871999999999,95.437,541.207,538.2669999999998,0.0
51148.0,STARLINK-3359,PAYLOAD,2022-08-06 20:29:46,15.08847794,0.0002126,53.2174,73.6906,70.1854,289.9368,7.455e-05,8.99e-06,0.0,0 STARLINK-3359,1 51148U 22005AW  22218.85401134  .00000899  00000-0  74550-4 0  9990,2 51148  53.2174  73.6906 0002126  70.1854 289.9368 15.08847794 31811,6917.857,95.437,541.192,538.251,0.0
51148.0,STARLINK-3359,PAYLOAD,2022-08-07 07:37:29,15.08836338,0.0002356999999999,53.2156,71.6099,69.3193,290.8052,-3.0904e-05,-7.8e-06,0.0,0 STARLINK-3359,1 51148U 22005AW  22219.31770188 -.00000780  00000-0 -30904-4 0  9996,2 51148  53.2156  71.6099 0002357  69.3193 290.8052 15.08836338 30771,6917.892,95.438,541.387,538.126,0.0
51148.0,STARLINK-3359,PAYLOAD,2022-08-07 20:20:34,15.0883799,0.0002073999999999,53.2167,69.2296,72.2601,287.8617,9.1696e-05,1.171e-05,0.0,0 STARLINK-3359,1 51148U 22005AW  22219.84761927  .00001171  00000-0  91696-4 0  9993,2 51148  53.2167  69.2296 0002074  72.2601 287.8617 15.08837990 30855,6917.887,95.438,541.186,538.317,0.0
51148.0,STARLINK-3359,PAYLOAD,2022-08-08 07:28:15,15.08849497,0.0002044999999999,53.2173,67.1489,71.2527,288.8687,0.00017273,2.463e-05,0.0,0 STARLINK-3359,1 51148U 22005AW  22220.31129205  .00002463  00000-0  17273-3 0  9997,2 51148  53.2173  67.1489 0002045  71.2527 288.8687 15.08849497 30928,6917.851,95.437,541.131,538.302,0.0
51148.0,STARLINK-3359,PAYLOAD,2022-08-08 20:11:20,15.0885671,0.0002103,53.2165,64.7701,70.4891,289.6328,0.00031481,4.728e-05,0.0,0 STARLINK-3359,1 51148U 22005AW  22220.84120940  .00004728  00000-0  31481-3 0  9995,2 51148  53.2165  64.7701 0002103  70.4891 289.6328 15.08856710 31006,6917.829000000002,95.436,541.149,538.239,0.0
51148.0,STARLINK-3359,PAYLOAD,2022-08-08 23:22:06,15.08861311,0.0002145,53.2164,64.1753,72.4923,287.6303,0.00052072,8.014e-05,0.0,0 STARLINK-3359,1 51148U 22005AW  22220.97368943  .00008014  00000-0  52072-3 0  9997,2 51148  53.2164  64.1753 0002145  72.4923 287.6303 15.08861311 32139,6917.815,95.436,541.164,538.196,0.0
